NORAD_CAT_ID,OBJECT_NAME,OBJECT_TYPE,EPOCH,MEAN_MOTION,ECCENTRICITY,INCLINATION,RA_OF_ASC_NODE,ARG_OF_PERICENTER,MEAN_ANOMALY,BSTAR,MEAN_MOTION_DOT,MEAN_MOTION_DDOT,TLE_LINE0,TLE_LINE1,TLE_LINE2,SEMIMAJOR_AXIS,PERIOD,APOGEE,PERIGEE,DECAYED
55414.0,STARLINK-5620,PAYLOAD,2024-03-23 18:00:41,14.9832099,0.0003105,69.9987,89.5044,267.6581,92.4223,-6.4922e-05,-8.67e-06,0.0,0 STARLINK-5620,1 55414U 23014Z   24083.75048544 -.00000867  00000-0 -64922-4 0  9993,2 55414  69.9987  89.5044 0003105 267.6581  92.4223 14.98320990 64325,6950.221,96.108,574.244,569.928,0.0
55414.0,STARLINK-5620,PAYLOAD,2024-03-24 10:02:02,14.98324772,0.0002936,69.999,87.822,266.9091,93.1732,2.5165e-05,2.07e-06,0.0,0 STARLINK-5620,1 55414U 23014Z   24084.41808379  .00000207  00000-0  25165-4 0  9999,2 55414  69.9990  87.8220 0002936 266.9091  93.1732 14.98324772 64421,6950.209,96.107,574.115,570.033,0.0
55414.0,STARLINK-5620,PAYLOAD,2024-03-24 22:51:06,14.98330869,0.0003116,69.9991,86.4756,269.8893,90.1909,7.7094e-05,8.27e-06,0.0,0 STARLINK-5620,1 55414U 23014Z   24084.95215922  .00000827  00000-0  77094-4 0  9990,2 55414  69.9991  86.4756 0003116 269.8893  90.1909 14.98330869 64500,6950.19,96.107,574.221,569.89,0.0
55414.0,STARLINK-5620,PAYLOAD,2024-03-25 05:15:38,14.98334573,0.0003129,69.9991,85.8028,271.6303,88.4498,0.00011051,1.226e-05,0.0,0 STARLINK-5620,1 55414U 23014Z   24085.21919519  .00001226  00000-0  11051-3 0  9997,2 55414  69.9991  85.8028 0003129 271.6303  88.4498 14.98334573 64549,6950.179,96.107,574.218,569.869,0.0
55414.0,STARLINK-5620,PAYLOAD,2024-03-25 10:04:02,14.98337219,0.0003072,69.9991,85.2972,270.1566,89.9241,0.00013633,1.534e-05,0.0,0 STARLINK-5620,1 55414U 23014Z   24085.41947202  .00001534  00000-0  13633-3 0  9999,2 55414  69.9991  85.2972 0003072 270.1566  89.9241 14.98337219 64578,6950.171,96.107,574.171,569.9,0.0
55414.0,STARLINK-5620,PAYLOAD,2024-03-26 05:17:40,14.98326108,0.0002958,69.9993,83.2772,270.4194,89.6626,1.5585e-05,9.3e-07,0.0,0 STARLINK-5620,1 55414U 23014Z   24086.22060282  .00000093  00000-0  15585-4 0  9991,2 55414  69.9993  83.2772 0002958 270.4194  89.6626 14.98326108 64690,6950.205,96.107,574.126,570.014,0.0
55414.0,STARLINK-5620,PAYLOAD,2024-03-26 10:06:04,14.98327719,0.0002939,69.9994,82.7722,270.7775,89.3047,2.8219e-05,2.44e-06,0.0,0 STARLINK-5620,1 55414U 23014Z   24086.42088168  .00000244  00000-0  28219-4 0  9992,2 55414  69.9994  82.7722 0002939 270.7775  89.3047 14.98327719 64724,6950.2,96.107,574.108,570.022,0.0
55414.0,STARLINK-5620,PAYLOAD,2024-03-26 22:55:08,14.983355,0.000288,69.9994,81.4258,270.11,89.9729,-6.8373e-05,-9.09e-06,0.0,0 STARLINK-5620,1 55414U 23014Z   24086.95495930 -.00000909  00000-0 -68373-4 0  9994,2 55414  69.9994  81.4258 0002880 270.1100  89.9729 14.98335500 64804,6950.176,96.107,574.043,570.039,0.0
55414.0,STARLINK-5620,PAYLOAD,2024-03-27 05:19:40,14.98336291,0.0002888,69.9994,80.7525,269.9255,90.1573,-5.4793e-05,-7.47e-06,0.0,0 STARLINK-5620,1 55414U 23014Z   24087.22199737 -.00000747  00000-0 -54793-4 0  9992,2 55414  69.9994  80.7525 0002888 269.9255  90.1573 14.98336291 64841,6950.173,96.107,574.046,570.031,0.0
55414.0,STARLINK-5620,PAYLOAD,2024-03-27 10:08:04,14.98336273,0.0002881,69.9994,80.2476,269.2847,90.7982,-4.8617e-05,-6.73e-06,0.0,0 STARLINK-5620,1 55414U 23014Z   24087.42227651 -.00000673  00000-0 -48617-4 0  9997,2 55414  69.9994  80.2476 0002881 269.2847  90.7982 14.98336273 64877,6950.173,96.107,574.041,570.036,0.0
55414.0,STARLINK-5620,PAYLOAD,2024-03-27 22:57:09,14.98329393,0.0002911,69.9993,78.9007,270.3085,89.7741,4.0184e-05,3.86e-06,0.0,0 STARLINK-5620,1 55414U 23014Z   24087.95635708  .00000386  00000-0  40184-4 0  9991,2 55414  69.9993  78.9007 0002911 270.3085  89.7741 14.98329393 64956,6950.195,96.107,574.083,570.037,0.0
55414.0,STARLINK-5620,PAYLOAD,2024-03-28 05:21:41,14.98330607,0.0002912,69.9994,78.2275,269.409,90.6736,4.9588e-05,4.99e-06,0.0,0 STARLINK-5620,1 55414U 23014Z   24088.22339594  .00000499  00000-0  49588-4 0  9998,2 55414  69.9994  78.2275 0002912 269.4090  90.6736 14.98330607 64992,6950.191,96.107,574.08,570.032,0.0
55414.0,STARLINK-5620,PAYLOAD,2024-03-28 10:10:05,14.98332118,0.0002898,69.9994,77.7224,269.8196,90.2631,6.3031e-05,6.59e-06,0.0,0 STARLINK-5620,1 55414U 23014Z   24088.42367444  .00000659  00000-0  63031-4 0  9992,2 55414  69.9994  77.7224 0002898 269.8196  90.2631 14.98332118 65028,6950.186,96.107,574.066,570.037,0.0
55414.0,STARLINK-5620,PAYLOAD,2024-03-28 22:59:10,14.9832668,0.0002967,69.9998,76.3756,267.8329,92.249,3.1519e-05,2.83e-06,0.0,0 STARLINK-5620,1 55414U 23014Z   24088.95775815  .00000283  00000-0  31519-4 0  9994,2 55414  69.9998  76.3756 0002967 267.8329  92.2490 14.98326680 65101,6950.203,96.107,574.13,570.006,0.0
55414.0,STARLINK-5620,PAYLOAD,2024-03-29 08:35:58,14.98330797,0.0002688,69.9997,75.365,261.9694,98.116,-1.2785e-05,-2.46e-06,0.0,0 STARLINK-5620,1 55414U 23014Z   24089.35831654 -.00000246  00000-0 -12785-4 0  9998,2 55414  69.9997  75.3650 0002688 261.9694  98.1160 14.98330797 65161,6950.19,96.107,573.924,570.187,0.0
55414.0,STARLINK-5620,PAYLOAD,2024-03-30 08:37:59,14.98332656,0.0002858,69.9997,72.8405,267.8285,92.2547,-1.2944e-05,-2.47e-06,0.0,0 STARLINK-5620,1 55414U 23014Z   24090.35971457 -.00000247  00000-0 -12944-4 0  9994,2 55414  69.9997  72.8405 0002858 267.8285  92.2547 14.98332656 65318,6950.185,96.107,574.036,570.063,0.0
55414.0,STARLINK-5620,PAYLOAD,2024-03-30 23:03:12,14.9832181,0.0002805,70.001,71.3256,269.5423,90.5414,-2.8625e-05,-4.34e-06,0.0,0 STARLINK-5620,1 55414U 23014Z   24090.96056320 -.00000434  00000-0 -28625-4 0  9995,2 55414  70.0010  71.3256 0002805 269.5423  90.5414 14.98321810 65404,6950.218,96.108,574.033,570.134,0.0
55414.0,STARLINK-5620,PAYLOAD,2024-03-31 05:27:45,14.98318127,0.0002679,69.9998,70.6523,269.2547,90.8305,-0.00014919,-1.872e-05,0.0,0 STARLINK-5620,1 55414U 23014Z   24091.22761070 -.00001872  00000-0 -14919-3 0  9997,2 55414  69.9998  70.6523 0002679 269.2547  90.8305 14.98318127 65441,6950.23,96.108,573.957,570.233,0.0
55414.0,STARLINK-5620,PAYLOAD,2024-03-31 08:40:01,14.98314841,0.0002977,69.9997,70.3165,269.4095,90.6723,-0.00014162,-1.782e-05,0.0,0 STARLINK-5620,1 55414U 23014Z   24091.36113356 -.00001782  00000-0 -14162-3 0  9990,2 55414  69.9997  70.3165 0002977 269.4095  90.6723 14.98314841 65463,6950.24,96.108,574.174,570.036,0.0
55414.0,STARLINK-5620,PAYLOAD,2024-04-01 05:29:46,14.98326461,0.0003088,69.9995,68.1277,271.8639,88.2166,-8.279e-06,-1.92e-06,0.0,0 STARLINK-5620,1 55414U 23014Z   24092.22900745 -.00000192  00000-0 -82790-5 0  9990,2 55414  69.9995  68.1277 0003088 271.8639  88.2166 14.98326461 65594,6950.204,96.107,574.215,569.923,0.0
55414.0,STARLINK-5620,PAYLOAD,2024-04-01 08:42:02,14.98328278,0.0003061,69.9996,67.7908,272.2512,87.8296,1.3611e-05,6.9e-07,0.0,0 STARLINK-5620,1 55414U 23014Z   24092.36252619  .00000069  00000-0  13611-4 0  9991,2 55414  69.9996  67.7908 0003061 272.2512  87.8296 14.98328278 65617,6950.198,96.107,574.191,569.936,0.0
55414.0,STARLINK-5620,PAYLOAD,2024-04-02 02:19:30,14.98327561,0.0003162,69.9992,65.9389,273.4407,86.639,0.00025121,2.905e-05,0.0,0 STARLINK-5620,1 55414U 23014Z   24093.09688075  .00002905  00000-0  25121-3 0  9990,2 55414  69.9992  65.9389 0003162 273.4407  86.6390 14.98327561 65722,6950.2,96.107,574.263,569.868,0.0
55414.0,STARLINK-5620,PAYLOAD,2024-04-02 07:07:54,14.98332462,0.0002976,69.9995,65.4338,270.8108,89.271,0.00027603,3.202e-05,0.0,0 STARLINK-5620,1 55414U 23014Z   24093.29715688  .00003202  00000-0  27603-3 0  9991,2 55414  69.9995  65.4338 0002976 270.8108  89.2710 14.98332462 65759,6950.185,96.107,574.119,569.982,0.0
55414.0,STARLINK-5620,PAYLOAD,2024-04-02 21:33:06,14.98336866,0.0002864,70.0002,63.92,269.1193,90.9637,9.8895e-05,1.087e-05,0.0,0 STARLINK-5620,1 55414U 23014Z   24093.89799731  .00001087  00000-0  98895-4 0  9999,2 55414  70.0002  63.9200 0002864 269.1193  90.9637 14.98336866 65842,6950.172,96.107,574.027,570.046,0.0
55414.0,STARLINK-5620,PAYLOAD,2024-04-03 02:21:31,14.98336426,0.0002872,70.0002,63.415,269.6384,90.4446,7.2511e-05,7.72e-06,0.0,0 STARLINK-5620,1 55414U 23014Z   24094.09827736  .00000772  00000-0  72511-4 0  9996,2 55414  70.0002  63.4150 0002872 269.6384  90.4446 14.98336426 65875,6950.173,96.107,574.034,570.042,0.0
55414.0,STARLINK-5620,PAYLOAD,2024-04-03 07:09:55,14.98337524,0.0002968,70.0001,62.9099,270.3913,89.6905,8.3962e-05,9.09e-06,0.0,0 STARLINK-5620,1 55414U 23014Z   24094.29855520  .00000909  00000-0  83962-4 0  9994,2 55414  70.0001  62.9099 0002968 270.3913  89.6905 14.98337524 65907,6950.17,96.107,574.097,569.972,0.0
55414.0,STARLINK-5620,PAYLOAD,2024-04-03 21:35:08,14.98336174,0.0002795,70.0003,61.3949,271.3093,88.7746,-0.00011563,-1.473e-05,0.0,0 STARLINK-5620,1 55414U 23014Z   24094.89939947 -.00001473  00000-0 -11563-3 0  9992,2 55414  70.0003  61.3949 0002795 271.3093  88.7746 14.98336174 65996,6950.174,96.107,573.981,570.096,0.0
55414.0,STARLINK-5620,PAYLOAD,2024-04-04 03:59:40,14.9833258,0.0003007,70.0004,60.7219,271.8093,88.2722,-9.7686e-05,-1.258e-05,0.0,0 STARLINK-5620,1 55414U 23014Z   24095.16643986 -.00001258  00000-0 -97686-4 0  9990,2 55414  70.0004  60.7219 0003007 271.8093  88.2722 14.98332580 66034,6950.185,96.107,574.14,569.96,0.0
55414.0,STARLINK-5620,PAYLOAD,2024-04-04 07:11:56,14.98332081,0.000301,70.0006,60.3854,272.0379,88.0435,-0.00012414,-1.574e-05,0.0,0 STARLINK-5620,1 55414U 23014Z   24095.29996083 -.00001574  00000-0 -12414-3 0  9999,2 55414  70.0006  60.3854 0003010 272.0379  88.0435 14.98332081 66058,6950.186,96.107,574.143,569.959,0.0
55414.0,STARLINK-5620,PAYLOAD,2024-04-04 21:37:08,14.98334725,0.0003074,70.0001,58.8696,269.9563,90.1244,-1.4642e-05,-2.68e-06,0.0,0 STARLINK-5620,1 55414U 23014Z   24095.90079333 -.00000268  00000-0 -14642-4 0  9992,2 55414  70.0001  58.8696 0003074 269.9563  90.1244 14.98334725 66148,6950.178,96.107,574.18,569.907,0.0
